{
  "norad_id": 64697,
  "name": "STARLINK-34584",
  "history": [
    {
      "epoch": "2026-03-28T21:53:03.398496",
      "apogee_km": 573.6605479940645,
      "perigee_km": 570.4092575779414,
      "latitude_deg": 34.72823255601086,
      "longitude_deg": 17.237109439913183,
      "semi_major_axis_km": 6950.171902786003,
      "eccentricity": 0.0002339,
      "inclination_deg": 69.9999,
      "raan_deg": 265.8436,
      "arg_perigee_deg": 270.5867,
      "mean_anomaly_deg": 89.5024,
      "mean_motion_rev_day": 14.98336787
    }
  ]
}